IRIDIUM 106             
1 41917U 17003A   24296.64433267  .00000445  00000+0  15179-3 0  9999
2 41917  86.3988 340.3408 0002623  91.3480 268.8016 14.34218645406847
IRIDIUM 103             
1 41918U 17003B   24296.63166792  .00000530  00000+0  18220-3 0  9990
2 41918  86.3987 340.2474 0002464 108.2822 251.8642 14.34218282406866
IRIDIUM 109             
1 41919U 17003C   24296.63800340  .00000487  00000+0  16690-3 0  9995
2 41919  86.3989 340.2944 0001909 105.3232 254.8175 14.34221312406836
IRIDIUM 102             
1 41920U 17003D   24296.18766247  .00000330  00000+0  11084-3 0  9993
2 41920  86.3987 340.4190 0002106  90.0445 270.0992 14.34220013406853
IRIDIUM 105             
1 41921U 17003E   24296.50725378  .00000271  00000+0  89678-4 0  9999
2 41921  86.3931 308.7151 0002353  92.6110 267.5355 14.34219199408756
IRIDIUM 104             
1 41922U 17003F   24296.54921117  .00000541  00000+0  18600-3 0  9999
2 41922  86.3987 340.3009 0001880 108.1056 252.0345 14.34218426406891
IRIDIUM 114             
1 41923U 17003G   24296.55553688  .00000496  00000+0  16993-3 0  9997
2 41923  86.3987 340.2840 0002422  96.8434 263.3038 14.34222213406871
